ONEWEB-0574             
1 56063U 23043T   23264.77144741  .00006849  00000+0  16534-1 0  9990
2 56063  87.9148  82.9620 0001797  69.3901 290.7426 13.21847342 26247
ONEWEB-0575             
1 56064U 23043U   23265.18501967  .00003293  00000+0  34667-3 0  9993
2 56064  86.9014  73.2312 0002627  91.4701 268.6827 14.89088004 27839
ONEWEB-0576             
1 56065U 23043V   23264.89390761  .00002844  00000+0  29899-3 0  9991
2 56065  86.8962  73.2585 0003359 107.4683 252.6911 14.89087759 26880
ONEWEB-0577             
1 56066U 23043W   23265.43414102  .00002925  00000+0  30773-3 0  9992
2 56066  86.9019  73.2174 0001667 133.0380 227.0986 14.89078637 27882
ONEWEB-0578             
1 56067U 23043X   23265.44006485  .00006398  00000+0  15451-1 0  9997
2 56067  87.9143  82.8230 0002134  75.4991 284.6379 13.21819689 27204
ONEWEB-0579             
1 56068U 23043Y   23265.43156659 -.00002202  00000+0 -53685-2 0  9990
2 56068  87.9188  82.8262 0002813  76.0262 284.1185 13.21780586 27215
ONEWEB-0581             
1 56069U 23043Z   23264.96881191 -.00000036  00000+0 -68335-5 0  9998
2 56069  86.8986  73.2576 0004208 100.8270 259.3431 14.89076761 27808
ONEWEB-0609             
1 56070U 23043AA  23265.09443304 -.00000065  00000+0 -20620-3 0  9990
2 56070  87.8920  98.1661 0001672  81.6460 278.4860 13.15549586 25982
